IONOSFERA-M 1           
1 61735U 24199A   26095.26545675  .00000088  00000+0  59082-4 0  9992
2 61735  98.7278 329.1689 0001464  40.4519 319.6768 14.22740934117332
IONOSFERA-M 2           
1 61736U 24199B   26095.22958226  .00000096  00000+0  62516-4 0  9994
2 61736  98.7277 329.0447 0001405 122.8648 237.2665 14.22743792120459
BIOMASS                 
1 63772U 25090A   26095.07571461  .00002219  00000+0  39976-3 0  9994
2 63772  98.0756 283.4503 0001061 117.2511 242.8802 14.67535152 49966
GOSAT-GW (IBUKI GW)     
1 64694U 25141A   26095.30421243  .00001379  00000+0  25154-3 0  9992
2 64694  98.0531  33.8230 0001408  84.1474 275.9891 14.67548833 41158
IONOSFERA-M 3           
1 64876U 25155A   26095.25236816  .00000113  00000+0  71165-4 0  9992
2 64876  98.5969  59.0201 0002467  77.2714 282.8739 14.21473351 36046
IONOSFERA-M 4           
1 64877U 25155B   26095.21692319  .00000112  00000+0  71003-4 0  9993
2 64877  98.5964  58.9037 0001822  75.2187 284.9192 14.21475235 36031
MICROCARB               
1 64899U 25156A   26095.29390509  .00000974  00000+0  16183-3 0  9995
2 64899  97.9852 173.7300 0017299 141.9143 218.3291 14.72246923 37242
CO3D 3                  
1 64900U 25156B   26090.51674821  .00000117  00000+0  85126-5 0  9994
2 64900  97.4337 170.3268 0002068 103.1490 256.9977 15.20193533 37732
CO3D 4                  
1 64901U 25156C   26094.86120377  .00002274  00000+0  10814-3 0  9995
2 64901  97.4323 174.6072 0001402 137.4890 222.6454 15.20205421 38396
CO3D 2                  
1 64902U 25156D   26093.18234204  .00011547  00000+0  51813-3 0  9992
2 64902  97.6520 173.3642 0063279 311.0942  48.4837 15.19537740 38136
CO3D 1                  
1 64903U 25156E   26093.24825721  .00029003  00000+0  13154-2 0  9991
2 64903  97.4393 173.0315 0023021 357.4030   2.7082 15.20542090 38142
SENTINEL-6B             
1 66514U 25264A   26095.00678038 -.00000053  00000+0  34826-4 0  9990
2 66514  66.0402 287.1770 0007888 270.3519  89.6592 12.80930480 17790
CSG-3                   
1 67304U 26001A   26095.28765087  .00000592  00000+0  80915-4 0  9996
2 67304  97.8884 279.9423 0001385  86.8802 273.2569 14.82158521 13668
