[{"OBJECT_NAME":"IONOSFERA-M 1","OBJECT_ID":"2024-199A","EPOCH":"2026-04-05T06:22:15.463200","MEAN_MOTION":14.22740934,"ECCENTRICITY":0.00014641,"INCLINATION":98.7278,"RA_OF_ASC_NODE":329.1689,"ARG_OF_PERICENTER":40.4519,"MEAN_ANOMALY":319.6768,"EPHEMERIS_TYPE":0,"CLASSIFICATION_TYPE":"U","NORAD_CAT_ID":61735,"ELEMENT_SET_NO":999,"REV_AT_EPOCH":11733,"BSTAR":5.9081992e-5,"MEAN_MOTION_DOT":8.8e-7,"MEAN_MOTION_DDOT":0},{"OBJECT_NAME":"IONOSFERA-M 2","OBJECT_ID":"2024-199B","EPOCH":"2026-04-05T05:30:35.907264","MEAN_MOTION":14.22743792,"ECCENTRICITY":0.00014057,"INCLINATION":98.7277,"RA_OF_ASC_NODE":329.0447,"ARG_OF_PERICENTER":122.8648,"MEAN_ANOMALY":237.2665,"EPHEMERIS_TYPE":0,"CLASSIFICATION_TYPE":"U","NORAD_CAT_ID":61736,"ELEMENT_SET_NO":999,"REV_AT_EPOCH":12045,"BSTAR":6.2516077e-5,"MEAN_MOTION_DOT":9.6e-7,"MEAN_MOTION_DDOT":0},{"OBJECT_NAME":"BIOMASS","OBJECT_ID":"2025-090A","EPOCH":"2026-04-05T01:49:01.742304","MEAN_MOTION":14.67535152,"ECCENTRICITY":0.00010619,"INCLINATION":98.0756,"RA_OF_ASC_NODE":283.4503,"ARG_OF_PERICENTER":117.2511,"MEAN_ANOMALY":242.8802,"EPHEMERIS_TYPE":0,"CLASSIFICATION_TYPE":"U","NORAD_CAT_ID":63772,"ELEMENT_SET_NO":999,"REV_AT_EPOCH":4996,"BSTAR":0.00039976109,"MEAN_MOTION_DOT":2.219e-5,"MEAN_MOTION_DDOT":0},{"OBJECT_NAME":"GOSAT-GW (IBUKI GW)","OBJECT_ID":"2025-141A","EPOCH":"2026-04-05T07:18:03.953952","MEAN_MOTION":14.67548833,"ECCENTRICITY":0.00014087,"INCLINATION":98.0531,"RA_OF_ASC_NODE":33.823,"ARG_OF_PERICENTER":84.1474,"MEAN_ANOMALY":275.9891,"EPHEMERIS_TYPE":0,"CLASSIFICATION_TYPE":"U","NORAD_CAT_ID":64694,"ELEMENT_SET_NO":999,"REV_AT_EPOCH":4115,"BSTAR":0.00025153619,"MEAN_MOTION_DOT":1.379e-5,"MEAN_MOTION_DDOT":0},{"OBJECT_NAME":"IONOSFERA-M 3","OBJECT_ID":"2025-155A","EPOCH":"2026-04-05T06:03:24.609024","MEAN_MOTION":14.21473351,"ECCENTRICITY":0.00024677,"INCLINATION":98.5969,"RA_OF_ASC_NODE":59.0201,"ARG_OF_PERICENTER":77.2714,"MEAN_ANOMALY":282.8739,"EPHEMERIS_TYPE":0,"CLASSIFICATION_TYPE":"U","NORAD_CAT_ID":64876,"ELEMENT_SET_NO":999,"REV_AT_EPOCH":3604,"BSTAR":7.1164505e-5,"MEAN_MOTION_DOT":1.13e-6,"MEAN_MOTION_DDOT":0},{"OBJECT_NAME":"IONOSFERA-M 4","OBJECT_ID":"2025-155B","EPOCH":"2026-04-05T05:12:22.163616","MEAN_MOTION":14.21475235,"ECCENTRICITY":0.00018227,"INCLINATION":98.5964,"RA_OF_ASC_NODE":58.9037,"ARG_OF_PERICENTER":75.2187,"MEAN_ANOMALY":284.9192,"EPHEMERIS_TYPE":0,"CLASSIFICATION_TYPE":"U","NORAD_CAT_ID":64877,"ELEMENT_SET_NO":999,"REV_AT_EPOCH":3603,"BSTAR":7.1003073e-5,"MEAN_MOTION_DOT":1.12e-6,"MEAN_MOTION_DDOT":0},{"OBJECT_NAME":"MICROCARB","OBJECT_ID":"2025-156A","EPOCH":"2026-04-05T07:03:13.399776","MEAN_MOTION":14.72246923,"ECCENTRICITY":0.00172993,"INCLINATION":97.9852,"RA_OF_ASC_NODE":173.73,"ARG_OF_PERICENTER":141.9143,"MEAN_ANOMALY":218.3291,"EPHEMERIS_TYPE":0,"CLASSIFICATION_TYPE":"U","NORAD_CAT_ID":64899,"ELEMENT_SET_NO":999,"REV_AT_EPOCH":3724,"BSTAR":0.00016183051,"MEAN_MOTION_DOT":9.74e-6,"MEAN_MOTION_DDOT":0},{"OBJECT_NAME":"CO3D 3","OBJECT_ID":"2025-156B","EPOCH":"2026-03-31T12:24:07.045344","MEAN_MOTION":15.20193533,"ECCENTRICITY":0.00020689,"INCLINATION":97.4337,"RA_OF_ASC_NODE":170.3268,"ARG_OF_PERICENTER":103.149,"MEAN_ANOMALY":256.9977,"EPHEMERIS_TYPE":0,"CLASSIFICATION_TYPE":"U","NORAD_CAT_ID":64900,"ELEMENT_SET_NO":999,"REV_AT_EPOCH":3773,"BSTAR":8.512647e-6,"MEAN_MOTION_DOT":1.17e-6,"MEAN_MOTION_DDOT":0},{"OBJECT_NAME":"CO3D 4","OBJECT_ID":"2025-156C","EPOCH":"2026-04-04T20:40:08.005728","MEAN_MOTION":15.20205421,"ECCENTRICITY":0.00014024,"INCLINATION":97.4323,"RA_OF_ASC_NODE":174.6072,"ARG_OF_PERICENTER":137.489,"MEAN_ANOMALY":222.6454,"EPHEMERIS_TYPE":0,"CLASSIFICATION_TYPE":"U","NORAD_CAT_ID":64901,"ELEMENT_SET_NO":999,"REV_AT_EPOCH":3839,"BSTAR":0.00010813851,"MEAN_MOTION_DOT":2.274e-5,"MEAN_MOTION_DDOT":0},{"OBJECT_NAME":"CO3D 2","OBJECT_ID":"2025-156D","EPOCH":"2026-04-03T04:22:34.352256","MEAN_MOTION":15.1953774,"ECCENTRICITY":0.00632796,"INCLINATION":97.652,"RA_OF_ASC_NODE":173.3642,"ARG_OF_PERICENTER":311.0942,"MEAN_ANOMALY":48.4837,"EPHEMERIS_TYPE":0,"CLASSIFICATION_TYPE":"U","NORAD_CAT_ID":64902,"ELEMENT_SET_NO":999,"REV_AT_EPOCH":3813,"BSTAR":0.00051812883,"MEAN_MOTION_DOT":0.00011547,"MEAN_MOTION_DDOT":0},{"OBJECT_NAME":"CO3D 1","OBJECT_ID":"2025-156E","EPOCH":"2026-04-03T05:57:29.422944","MEAN_MOTION":15.2054209,"ECCENTRICITY":0.0023021,"INCLINATION":97.4393,"RA_OF_ASC_NODE":173.0315,"ARG_OF_PERICENTER":357.403,"MEAN_ANOMALY":2.7082,"EPHEMERIS_TYPE":0,"CLASSIFICATION_TYPE":"U","NORAD_CAT_ID":64903,"ELEMENT_SET_NO":999,"REV_AT_EPOCH":3814,"BSTAR":0.0013154,"MEAN_MOTION_DOT":0.00029003,"MEAN_MOTION_DDOT":0},{"OBJECT_NAME":"SENTINEL-6B","OBJECT_ID":"2025-264A","EPOCH":"2026-04-05T00:09:45.824832","MEAN_MOTION":12.8093048,"ECCENTRICITY":0.00078886,"INCLINATION":66.0402,"RA_OF_ASC_NODE":287.177,"ARG_OF_PERICENTER":270.3519,"MEAN_ANOMALY":89.6592,"EPHEMERIS_TYPE":0,"CLASSIFICATION_TYPE":"U","NORAD_CAT_ID":66514,"ELEMENT_SET_NO":999,"REV_AT_EPOCH":1779,"BSTAR":3.4825711e-5,"MEAN_MOTION_DOT":-5.3e-7,"MEAN_MOTION_DDOT":0},{"OBJECT_NAME":"CSG-3","OBJECT_ID":"2026-001A","EPOCH":"2026-04-05T06:54:13.035168","MEAN_MOTION":14.82158521,"ECCENTRICITY":0.00013857,"INCLINATION":97.8884,"RA_OF_ASC_NODE":279.9423,"ARG_OF_PERICENTER":86.8802,"MEAN_ANOMALY":273.2569,"EPHEMERIS_TYPE":0,"CLASSIFICATION_TYPE":"U","NORAD_CAT_ID":67304,"ELEMENT_SET_NO":999,"REV_AT_EPOCH":1366,"BSTAR":8.0915187e-5,"MEAN_MOTION_DOT":5.92e-6,"MEAN_MOTION_DDOT":0}]
